ARABSAT-5A              
1 36745U 10032B   25361.11977889  .00000176  00000+0  00000+0 0  9990
2 36745   0.0761  50.3753 0002795 229.4506 249.6164  1.00271662 56924
ECHOSTAR 15             
1 36792U 10034A   25360.94753211  .00000022  00000+0  00000+0 0  9995
2 36792   0.0131 317.5937 0001986 304.0606  56.3379  1.00272121 56596
CARTOSAT-2B             
1 36795U 10035A   25361.19092051  .00001012  00000+0  14447-3 0  9999
2 36795  97.7831  49.7498 0012433  33.8971 326.3033 14.78747740834433
ALSAT 2A                
1 36798U 10035D   25361.24089872  .00000976  00000+0  15517-3 0  9992
2 36798  97.7633   5.9698 0001988  79.3643 280.7790 14.74145098828425
TISAT 1                 
1 36799U 10035E   25360.76529260  .00020583  00000+0  85216-3 0  9998
2 36799  98.0605 288.1926 0004440 105.7943 254.3782 15.23962090841372
BEIDOU-2 IGSO-1         
1 36828U 10036A   25359.87976741 -.00000052  00000+0  00000+0 0  9996
2 36828  54.2892 164.5291 0051507 215.7944 138.9488  1.00272533 56350
NILESAT 201             
1 36830U 10037A   25361.11232551 -.00000035  00000+0  00000+0 0  9995
2 36830   0.0382 151.6871 0004440 107.3599 230.2465  1.00270519 56648
RASCOM-QAF 1R           
1 36831U 10037B   25361.11431884  .00000041  00000+0  00000+0 0  9992
2 36831   0.0324  86.7760 0007172 188.3973 224.7163  1.00271649 56581
YAOGAN-10               
1 36834U 10038A   25361.20231189  .00002202  00000+0  26665-3 0  9992
2 36834  97.9135  20.9138 0001267  80.2529   7.5873 14.84662368831689
AEHF-1 (USA 214)        
1 36868U 10039A   25359.84350214  .00000166  00000+0  00000+0 0  9996
2 36868   7.7926  70.2795 0004714 199.2461 158.6561  1.00272122 51917
COSMOS 2467             
1 37152U 10043A   25361.00616954  .00000049  00000+0  28024-3 0  9995
2 37152  82.4561 172.7216 0001422 144.0846 338.1685 12.42979575694114
STRELA 3                
1 37153U 10043B   25361.15834537  .00000005  00000+0 -37064-4 0  9999
2 37153  82.4565 185.5635 0008239  96.9059 263.2957 12.40788007693036
COSMOS 2468 (RODNIK-S 3)
1 37154U 10043C   25361.20152921  .00000036  00000+0  18489-3 0  9998
2 37154  82.4599 169.9184 0014044 324.4832 209.4801 12.43740820694493
YAOGAN-11               
1 37165U 10047A   25361.14226097  .00001257  00000+0  16537-3 0  9991
2 37165  98.4054 213.9108 0036148  75.1759 285.3453 14.81698437822614
ZHEDA PIXING 1B         
1 37166U 10047B   25361.21168809  .00002426  00000+0  25435-3 0  9992
2 37166  97.9293 333.4113 0020951 124.9571 235.3618 14.90354864824790
ZHEDA PIXING 1C         
1 37167U 10047C   25361.17456804  .00001704  00000+0  18154-3 0  9991
2 37167  97.9607 336.2165 0020406 130.4588 229.8413 14.90115170824801
SBSS (USA 216)          
1 37168U 10048A   25361.24496956  .00005645  00000+0  28073-3 0  9992
2 37168  97.7558 238.2776 0085439  76.1082  40.1953 15.14847601826427
SHIJIAN-6 04A (SJ-6 04A)
1 37179U 10051A   25361.17185014  .00010441  00000+0  55524-3 0  9991
2 37179  97.8421  13.6381 0021236  96.9713 263.3935 15.15271227830871
SHIJIAN-6 04B (SJ-6 04B)
1 37180U 10051B   25361.14950420  .00002034  00000+0  17337-3 0  9990
2 37180  97.8684 359.8397 0011606 156.6447 203.5304 14.98864903829901
XM-5                    
1 37185U 10053A   25360.28169609 -.00000001  00000+0  00000+0 0  9990
2 37185   0.0641 269.3940 0002039 243.8981 287.9534  1.00272159 55756
GLOBALSTAR M079         
1 37188U 10054A   25361.05857428 -.00000077  00000+0  14784-3 0  9994
2 37188  52.0045 272.6570 0000897  43.7492 329.2497 12.62261984700810
GLOBALSTAR M074         
1 37189U 10054B   25361.00583424 -.00000078  00000+0  14253-3 0  9994
2 37189  52.0023 272.1100 0000939  64.2922 308.6101 12.62264538701412
GLOBALSTAR M076         
1 37190U 10054C   25361.13981669 -.00000090  00000+0  77659-4 0  9997
2 37190  52.0035 271.8918 0001049  56.9306  84.1556 12.62268477701143
GLOBALSTAR M077         
1 37191U 10054D   25361.12279403 -.00000075  00000+0  50077-4 0  9991
2 37191  51.9969 256.3498 0001473  48.9788 120.7804 11.68176592701037
GLOBALSTAR M075         
1 37192U 10054E   25358.21427079 -.00000088  00000+0  85706-4 0  9993
2 37192  52.0022 322.9423 0000480 109.7567 352.3949 12.62261317699849
GLOBALSTAR M073         
1 37193U 10054F   25360.82274579 -.00000088  00000+0  88849-4 0  9990
2 37193  52.0042 228.9742 0001113  63.1869  15.7846 12.62268417702167
BSAT-3B                 
1 37207U 10056B   25361.06417237 -.00000328  00000+0  00000+0 0  9990
2 37207   0.0672 240.6683 0004208  18.7231 329.3558  1.00272371 50374
BEIDOU-2 G4             
1 37210U 10057A   25360.79571787 -.00000091  00000+0  00000+0 0  9992
2 37210   3.2171  69.8846 0010500 194.1818 278.0084  1.00271236 55560
FENGYUN 3B              
1 37214U 10059A   25361.17730541  .00000114  00000+0  82388-4 0  9995
2 37214  98.9888  41.2538 0021412 316.1912 131.8401 14.14794382783105
COSMO-SKYMED 4          
1 37216U 10060A   25360.95441432  .00001179  00000+0  15460-3 0  9990
2 37216  97.8809 182.0638 0001417  80.9318 279.2055 14.82164757819050
SKYTERRA 1              
1 37218U 10061A   25360.47359705 -.00000098  00000+0  00000+0 0  9991
2 37218   4.7559  50.9138 0004368 188.4761 285.0006  1.00271467 55464
O/OREOS (USA 219)       
1 37224U 10062C   25359.69466683  .00003137  00000+0  30892-3 0  9997
2 37224  71.9707 113.0634 0013830  29.2978 330.8965 14.92748385 90746
HYLAS 1                 
1 37237U 10065A   25360.15560911 -.00000214  00000+0  00000+0 0  9994
2 37237   5.2033  75.1701 0002887 223.7898 132.9141  1.00268241  5147
INTELSAT 17 (IS-17)     
1 37238U 10065B   25361.12679894  .00000000  00000+0  00000+0 0  9996
2 37238   0.0312  75.3085 0002945 225.7235 266.4513  1.00272098 51524
BEIDOU-2 IGSO-2         
1 37256U 10068A   25360.66391235 -.00000202  00000+0  00000+0 0  9992
2 37256  47.8603 273.9787 0048288 215.9223 312.6243  1.00281973 55068
EUTELSAT KA-SAT 9A      
1 37258U 10069A   25360.97283890  .00000084  00000+0  00000+0 0  9993
2 37258   0.0498 338.8223 0001420 205.5257 270.5649  1.00269951 42282
HISPASAT 30W-5          
1 37264U 10070A   25361.09955659 -.00000194  00000+0  00000+0 0  9998
2 37264   0.0292 127.6277 0002856 135.5774 198.4716  1.00271395 51462
KOREASAT 6              
1 37265U 10070B   25360.69201219 -.00000089  00000+0  00000+0 0  9993
2 37265   0.0047  36.6690 0002675 262.3297 205.4446  1.00270923 55040
BEIDOU-2 IGSO-3         
1 37384U 11013A   25360.75294303 -.00000171  00000+0  00000+0 0  9998
2 37384  62.1613  41.7837 0035119 187.8187 244.1436  1.00267391 53938
RESOURCESAT-2           
1 37387U 11015A   25361.14375836  .00000137  00000+0  82721-4 0  9994
2 37387  98.7858  64.6297 0005725   3.0813 357.0398 14.21595515761730
YOUTHSAT                
1 37388U 11015B   25361.18904685  .00000287  00000+0  13865-3 0  9997
2 37388  98.3483 338.2054 0015417 124.2918 246.4627 14.25528716763138
X-SAT                   
1 37389U 11015C   25361.21850910  .00000468  00000+0  21663-3 0  9999
2 37389  98.3331 341.6288 0014918 124.7252 235.5336 14.25135741763182
INTELSAT 28 (IS-28)     
1 37392U 11016A   25361.10747213 -.00000203  00000+0  00000+0 0  9999
2 37392   1.3598  84.8973 0003860 189.2455 188.6848  1.00271118 51563
YAHSAT 1A               
1 37393U 11016B   25360.19686133  .00000000  00000+0  00000+0 0  9995
2 37393   0.0156  15.9840 0003416 282.0457 280.2719  1.00265919 40677
SBIRS GEO-1 (USA 230)   
1 37481U 11019A   25360.73655786  .00000120  00000+0  00000+0 0  9999
2 37481   4.1577  53.0066 0002204 227.2448 132.1794  1.00272171 53664
TELSTAR 14R             
1 37602U 11021A   25361.08933734 -.00000258  00000+0  00000+0 0  9991
2 37602   0.0132 303.0079 0002143  11.0614 110.9197  1.00270908 54106
GSAT-8                  
1 37605U 11022A   25361.12463226  .00000106  00000+0  00000+0 0  9995
2 37605   1.6850  84.0389 0009106 186.9721 284.7852  1.00271961 51497
ST-2                    
1 37606U 11022B   25361.13121897 -.00000189  00000+0  00000+0 0  9994
2 37606   0.0177 325.5571 0001954 325.5010 300.0596  1.00272425 53556
ZHONGXING-10            
1 37677U 11026A   25361.13043896 -.00000173  00000+0  00000+0 0  9991
2 37677   0.6001  86.4161 0007349 174.2788 326.6078  1.00345495 53275
SJ-11-03                
1 37730U 11030A   25361.21417997  .00000955  00000+0  19053-3 0  9991
2 37730  97.9119 326.7132 0007268 209.8941 279.8996 14.64084178771949
GLOBALSTAR M083         
1 37739U 11033A   25360.82106749 -.00000088  00000+0  87927-4 0  9993
2 37739  51.9831 177.4417 0001039  80.5067 292.7731 12.62266082671187
GLOBALSTAR M088         
1 37740U 11033B   25361.19184475 -.00000099  00000+0  28606-4 0  9999
2 37740  52.0221  82.3227 0000711 128.6823 249.6847 12.62271009666770
GLOBALSTAR M091         
1 37741U 11033C   25360.41223662 -.00000105  00000+0 -56511-5 0  9992
2 37741  52.0012  47.9177 0000356 141.9986 231.1444 12.62268235667466
GLOBALSTAR M085         
1 37742U 11033D   25361.20588038 -.00000095  00000+0  49636-4 0  9998
2 37742  52.0146 356.6425 0000111  15.8265  66.1713 12.62267522668070
GLOBALSTAR M081         
1 37743U 11033E   25351.59018587 -.00000087  00000+0  92331-4 0  9998
2 37743  51.9980  28.5496 0000222  94.7932  71.3857 12.62270971667009
GLOBALSTAR M089         
1 37744U 11033F   25361.17738211 -.00000077  00000+0  14840-3 0  9994
2 37744  51.9952 313.5524 0000764  70.4149 302.9929 12.62262814669068
SES-3                   
1 37748U 11035A   25361.19073815 -.00000080  00000+0  00000+0 0  9997
2 37748   0.8809  85.0390 0002926 200.4888 136.0678  1.00271079 52869
KAZSAT-2                
1 37749U 11035B   25360.77472825 -.00000175  00000+0  00000+0 0  9990
2 37749   0.0075 164.1276 0001279 168.3808 128.4266  1.00270718 51678
NAVSTAR 66 (USA 232)    
1 37753U 11036A   25360.53213457 -.00000057  00000+0  00000+0 0  9993
2 37753  56.6420 338.7370 0136239  60.4283  67.0921  2.00563967105816
